{"type": "FeatureCollection", "features": [ {"type": "Feature", "properties": {"norad_id": 40697, "name": "SENTINEL-2A", "group": "resource", "lat": -52.392938005070185, "lon": -129.17328590795165, "alt_km": 796.599302347955, "timestamp": "2025-12-15T14:57:57.497346+00:00", "meta": {"OBJECT_NAME": "SENTINEL-2A", "OBJECT_ID": "2015-028A", "EPOCH": "2025-12-14T22:46:28.795296", "MEAN_MOTION": 14.30814626, "ECCENTRICITY": 0.00010786, "INCLINATION": 98.5688, "RA_OF_ASC_NODE": 61.4496, "ARG_OF_PERICENTER": 87.3474, "MEAN_ANOMALY": 272.7832, "EPHEMERIS_TYPE": 0, "CLASSIFICATION_TYPE": "U", "NORAD_CAT_ID": 40697, "ELEMENT_SET_NO": 999, "REV_AT_EPOCH": 54738, "BSTAR": 0.0001208809, "MEAN_MOTION_DOT": 2.73e-06, "MEAN_MOTION_DDOT": 0}, "tle": {"line1": "1 40697U 15028A   25348.94894439  .00000273  00000+0  12088-3 0  9997", "line2": "2 40697  98.5688  61.4496 0001078  87.3474 272.7832 14.30814626547384"}}, "geometry": {"type": "Point", "coordinates": [-129.17328590795165, -52.392938005070185]}}, {"type": "Feature", "properties": {"norad_id": 40701, "name": "GAOFEN-8", "group": "resource", "lat": -42.47232576216711, "lon": 175.01054740509315, "alt_km": 464.6014307648111, "timestamp": "2025-12-15T14:57:57.497355+00:00", "meta": {"OBJECT_NAME": "GAOFEN-8", "OBJECT_ID": "2015-030A", "EPOCH": "2025-12-14T23:32:39.970752", "MEAN_MOTION": 15.38633353, "ECCENTRICITY": 0.00116049, "INCLINATION": 97.6907, "RA_OF_ASC_NODE": 167.2306, "ARG_OF_PERICENTER": 130.0825, "MEAN_ANOMALY": 230.1439, "EPHEMERIS_TYPE": 0, "CLASSIFICATION_TYPE": "U", "NORAD_CAT_ID": 40701, "ELEMENT_SET_NO": 999, "REV_AT_EPOCH": 58305, "BSTAR": 0.00041824905, "MEAN_MOTION_DOT": 0.0001592, "MEAN_MOTION_DDOT": 0}, "tle": {"line1": "1 40701U 15030A   25348.98101818  .00015920  00000+0  41825-3 0  9998", "line2": "2 40701  97.6907 167.2306 0011604 130.0825 230.1439 15.38633353583051"}}, "geometry": {"type": "Point", "coordinates": [175.01054740509315, -42.47232576216711]}}, {"type": "Feature", "properties": {"norad_id": 40718, "name": "CARBONITE 1 (CBNT-1)", "group": "resource", "lat": 29.104410994054348, "lon": 166.25457732377953, "alt_km": 627.2723345618042, "timestamp": "2025-12-15T14:57:57.497364+00:00", "meta": {"OBJECT_NAME": "CARBONITE 1 (CBNT-1)", "OBJECT_ID": "2015-032D", "EPOCH": "2025-12-14T22:38:15.073728", "MEAN_MOTION": 14.82761549, "ECCENTRICITY": 0.00145209, "INCLINATION": 97.6405, "RA_OF_ASC_NODE": 169.8901, "ARG_OF_PERICENTER": 173.8269, "MEAN_ANOMALY": 186.3126, "EPHEMERIS_TYPE": 0, "CLASSIFICATION_TYPE": "U", "NORAD_CAT_ID": 40718, "ELEMENT_SET_NO": 999, "REV_AT_EPOCH": 56203, "BSTAR": 0.0004410705, "MEAN_MOTION_DOT": 3.52e-05, "MEAN_MOTION_DDOT": 0}, "tle": {"line1": "1 40718U 15032D   25348.94323002  .00003520  00000+0  44107-3 0  9994", "line2": "2 40718  97.6405 169.8901 0014520 173.8269 186.3126 14.82761549562035"}}, "geometry": {"type": "Point", "coordinates": [166.25457732377953, 29.104410994054348]}}, {"type": "Feature", "properties": {"norad_id": 40878, "name": "YAOGAN-27", "group": "resource", "lat": 19.590892765717427, "lon": 162.75051857484937, "alt_km": 1202.5764864747416, "timestamp": "2025-12-15T14:57:57.497373+00:00", "meta": {"OBJECT_NAME": "YAOGAN-27", "OBJECT_ID": "2015-040A", "EPOCH": "2025-12-14T23:33:31.567104", "MEAN_MOTION": 13.16058609, "ECCENTRICITY": 0.00076298, "INCLINATION": 100.1013, "RA_OF_ASC_NODE": 338.5003, "ARG_OF_PERICENTER": 281.285, "MEAN_ANOMALY": 78.7406, "EPHEMERIS_TYPE": 0, "CLASSIFICATION_TYPE": "U", "NORAD_CAT_ID": 40878, "ELEMENT_SET_NO": 999, "REV_AT_EPOCH": 49343, "BSTAR": -0.0010602999, "MEAN_MOTION_DOT": -4.45e-06, "MEAN_MOTION_DDOT": 0}, "tle": {"line1": "1 40878U 15040A   25348.98161536 -.00000445  00000+0 -10603-2 0  9994", "line2": "2 40878 100.1013 338.5003 0007629 281.2850  78.7406 13.16058609493431"}}, "geometry": {"type": "Point", "coordinates": [162.75051857484937, 19.590892765717427]}}, {"type": "Feature", "properties": {"norad_id": 40894, "name": "GAOFEN-9 01", "group": "resource", "lat": -52.71834645459149, "lon": 38.629163530421145, "alt_km": 624.6226886919721, "timestamp": "2025-12-15T14:57:57.497382+00:00", "meta": {"OBJECT_NAME": "GAOFEN-9 01", "OBJECT_ID": "2015-047A", "EPOCH": "2025-12-14T23:00:21.952224", "MEAN_MOTION": 14.82427328, "ECCENTRICITY": 0.00282223, "INCLINATION": 97.6541, "RA_OF_ASC_NODE": 27.8183, "ARG_OF_PERICENTER": 27.2061, "MEAN_ANOMALY": 333.0625, "EPHEMERIS_TYPE": 0, "CLASSIFICATION_TYPE": "U", "NORAD_CAT_ID": 40894, "ELEMENT_SET_NO": 999, "REV_AT_EPOCH": 55289, "BSTAR": 0.0001586808, "MEAN_MOTION_DOT": 1.229e-05, "MEAN_MOTION_DDOT": 0}, "tle": {"line1": "1 40894U 15047A   25348.95858741  .00001229  00000+0  15868-3 0  9995", "line2": "2 40894  97.6541  27.8183 0028222  27.2061 333.0625 14.82427328552894"}}, "geometry": {"type": "Point", "coordinates": [38.629163530421145, -52.71834645459149]}}, {"type": "Feature", "properties": {"norad_id": 41026, "name": "YAOGAN-28", "group": "resource", "lat": 6.473531672358251, "lon": -51.8348793451681, "alt_km": 490.09461792276943, "timestamp": "2025-12-15T14:57:57.497391+00:00", "meta": {"OBJECT_NAME": "YAOGAN-28", "OBJECT_ID": "2015-064A", "EPOCH": "2025-12-14T22:27:17.826336", "MEAN_MOTION": 15.24396218, "ECCENTRICITY": 0.00124643, "INCLINATION": 97.2801, "RA_OF_ASC_NODE": 126.6656, "ARG_OF_PERICENTER": 118.926, "MEAN_ANOMALY": 241.323, "EPHEMERIS_TYPE": 0, "CLASSIFICATION_TYPE": "U", "NORAD_CAT_ID": 41026, "ELEMENT_SET_NO": 999, "REV_AT_EPOCH": 56258, "BSTAR": 0.00028429651, "MEAN_MOTION_DOT": 6.913e-05, "MEAN_MOTION_DDOT": 0}, "tle": {"line1": "1 41026U 15064A   25348.93562299  .00006913  00000+0  28430-3 0  9994", "line2": "2 41026  97.2801 126.6656 0012464 118.9260 241.3230 15.24396218562580"}}, "geometry": {"type": "Point", "coordinates": [-51.8348793451681, 6.473531672358251]}}, {"type": "Feature", "properties": {"norad_id": 41038, "name": "YAOGAN-29", "group": "resource", "lat": -19.59410333784349, "lon": -170.07267877013626, "alt_km": 625.322038349972, "timestamp": "2025-12-15T14:57:57.497401+00:00", "meta": {"OBJECT_NAME": "YAOGAN-29", "OBJECT_ID": "2015-069A", "EPOCH": "2025-12-14T23:29:35.659680", "MEAN_MOTION": 14.82888272, "ECCENTRICITY": 1.053e-05, "INCLINATION": 98.0225, "RA_OF_ASC_NODE": 12.1582, "ARG_OF_PERICENTER": 209.4446, "MEAN_ANOMALY": 150.6761, "EPHEMERIS_TYPE": 0, "CLASSIFICATION_TYPE": "U", "NORAD_CAT_ID": 41038, "ELEMENT_SET_NO": 999, "REV_AT_EPOCH": 54332, "BSTAR": 0.00014666878, "MEAN_MOTION_DOT": 1.134e-05, "MEAN_MOTION_DDOT": 0}, "tle": {"line1": "1 41038U 15069A   25348.97888495  .00001134  00000+0  14667-3 0  9992", "line2": "2 41038  98.0225  12.1582 0000105 209.4446 150.6761 14.82888272543321"}}, "geometry": {"type": "Point", "coordinates": [-170.07267877013626, -19.59410333784349]}}, {"type": "Feature", "properties": {"norad_id": 41167, "name": "KENT RIDGE 1", "group": "resource", "lat": 1.352724202324572, "lon": 4.681761672823198, "alt_km": 492.07255175998216, "timestamp": "2025-12-15T14:57:57.497410+00:00", "meta": {"OBJECT_NAME": "KENT RIDGE 1", "OBJECT_ID": "2015-077B", "EPOCH": "2025-12-14T22:28:15.080160", "MEAN_MOTION": 15.21656092, "ECCENTRICITY": 0.00084775, "INCLINATION": 14.9785, "RA_OF_ASC_NODE": 194.8424, "ARG_OF_PERICENTER": 161.9763, "MEAN_ANOMALY": 198.086, "EPHEMERIS_TYPE": 0, "CLASSIFICATION_TYPE": "U", "NORAD_CAT_ID": 41167, "ELEMENT_SET_NO": 999, "REV_AT_EPOCH": 55297, "BSTAR": 0.00014299227, "MEAN_MOTION_DOT": 4.084e-05, "MEAN_MOTION_DDOT": 0}, "tle": {"line1": "1 41167U 15077B   25348.93628565  .00004084  00000+0  14299-3 0  9998", "line2": "2 41167  14.9785 194.8424 0008477 161.9763 198.0860 15.21656092552973"}}, "geometry": {"type": "Point", "coordinates": [4.681761672823198, 1.352724202324572]}}, {"type": "Feature", "properties": {"norad_id": 41194, "name": "GAOFEN-4", "group": "resource", "lat": -0.05591717306302009, "lon": 54.639856451127244, "alt_km": 35795.98025106847, "timestamp": "2025-12-15T14:57:57.497423+00:00", "meta": {"OBJECT_NAME": "GAOFEN-4", "OBJECT_ID": "2015-083A", "EPOCH": "2025-12-14T22:28:54.120000", "MEAN_MOTION": 1.00268731, "ECCENTRICITY": 0.00033241, "INCLINATION": 0.1759, "RA_OF_ASC_NODE": 81.4307, "ARG_OF_PERICENTER": 102.853, "MEAN_ANOMALY": 342.4629, "EPHEMERIS_TYPE": 0, "CLASSIFICATION_TYPE": "U", "NORAD_CAT_ID": 41194, "ELEMENT_SET_NO": 999, "REV_AT_EPOCH": 3668, "BSTAR": 0, "MEAN_MOTION_DOT": -3.14e-06, "MEAN_MOTION_DDOT": 0}, "tle": {"line1": "1 41194U 15083A   25348.93673750 -.00000314  00000+0  00000+0 0  9995", "line2": "2 41194   0.1759  81.4307 0003324 102.8530 342.4629  1.00268731 36688"}}, "geometry": {"type": "Point", "coordinates": [54.639856451127244, -0.05591717306302009]}}, {"type": "Feature", "properties": {"norad_id": 41240, "name": "JASON-3", "group": "resource", "lat": -1.7746923015378684, "lon": 150.97192661397716, "alt_km": 1312.8647038696563, "timestamp": "2025-12-15T14:57:57.497432+00:00", "meta": {"OBJECT_NAME": "JASON-3", "OBJECT_ID": "2016-002A", "EPOCH": "2025-12-14T22:11:57.559200", "MEAN_MOTION": 12.87626631, "ECCENTRICITY": 0.00071527, "INCLINATION": 66.0392, "RA_OF_ASC_NODE": 153.2298, "ARG_OF_PERICENTER": 270.9182, "MEAN_ANOMALY": 89.1017, "EPHEMERIS_TYPE": 0, "CLASSIFICATION_TYPE": "U", "NORAD_CAT_ID": 41240, "ELEMENT_SET_NO": 999, "REV_AT_EPOCH": 46352, "BSTAR": 0.00014740542, "MEAN_MOTION_DOT": -2.5e-07, "MEAN_MOTION_DDOT": 0}, "tle": {"line1": "1 41240U 16002A   25348.92497175 -.00000025  00000+0  14741-3 0  9993", "line2": "2 41240  66.0392 153.2298 0007152 270.9182  89.1017 12.87626631463521"}}, "geometry": {"type": "Point", "coordinates": [150.97192661397716, -1.7746923015378684]}}]}